ONEWEB-0120             
1 47266U 20100J   26007.74973535 -.00000355  00000+0 -10211-2 0  9997
2 47266  87.8915  22.5415 0001675  93.5517 266.5803 13.12442223243680
ONEWEB-0121             
1 47267U 20100K   26007.73773115 -.00000097  00000+0 -30387-3 0  9999
2 47267  87.8924  22.5146 0001773  84.1873 275.9458 13.12441577243593
ONEWEB-0122             
1 47268U 20100L   26007.73252094  .00000096  00000+0  23039-3 0  9991
2 47268  87.8925  22.5181 0001563  88.5623 271.5685 13.12444878243504
ONEWEB-0123             
1 47269U 20100M   26007.72757646  .00000283  00000+0  75217-3 0  9997
2 47269  87.8917  22.5433 0001794  93.9543 266.1790 13.12443334243641
ONEWEB-0124             
1 47270U 20100N   26007.79365648  .00000503  00000+0  13638-2 0  9996
2 47270  87.8917  22.5348 0001873  88.2128 271.9215 13.12444097243533
ONEWEB-0125             
1 47271U 20100P   26007.77163085 -.00000070  00000+0 -23014-3 0  9997
2 47271  87.8926  22.5047 0002030  91.8148 268.3213 13.12445719243594
ONEWEB-0126             
1 47272U 20100Q   26007.79210589  .00000468  00000+0  12666-2 0  9991
2 47272  87.8925  22.5237 0001648  94.3998 265.7319 13.12441428243669
ONEWEB-0127             
1 47273U 20100R   26007.75806943 -.00000389  00000+0 -11180-2 0  9997
2 47273  87.8921  22.5394 0001607  93.3829 266.7483 13.12441316243688
